{ "name" : "Grace McDonald", "address" : [ { "street" : "1681 Veva Center", "city" : "Enakevim", "state" : "HI", "zip" : "27690" }, { "street" : "190 Jaemi Trail", "city" : "Wowzebtuh", "state" : "IN", "zip" : "36810" } ], "_id" : { "$oid" : "53b5ae6fa183684515d767f7" } }
{ "name" : "Lillian Hunter", "address" : [ { "street" : "97 Aziwaj Park", "city" : "Keazemuh", "state" : "WV", "zip" : "30859" }, { "street" : "259 Atouwu Plaza", "city" : "Warecain", "state" : "NH", "zip" : "18383" }, { "street" : "1840 Apda Street", "city" : "Buelidu", "state" : "NH", "zip" : "33543" } ], "_id" : { "$oid" : "53b5ae6fa183684515d767f8" } }
{ "name" : "Lina Barrett", "address" : [ { "street" : "1632 Doubo Heights", "city" : "Wetujej", "state" : "MD", "zip" : "57674" }, { "street" : "765 Vuhi Grove", "city" : "Ofionhi", "state" : "RI", "zip" : "92819" }, { "street" : "1875 Jecogi Grove", "city" : "Ejjetan", "state" : "AZ", "zip" : "29986" } ], "_id" : { "$oid" : "53b5ae6fa183684515d767f9" } }
{ "name" : "Sallie Colon", "address" : [ { "street" : "528 Upadi Pass", "city" : "Tavciuk", "state" : "GA", "zip" : "10795" } ], "_id" : { "$oid" : "53b5ae6fa183684515d767fa" } }
{ "name" : "Ellen Doyle", "address" : [ { "street" : "288 Teno Way", "city" : "Hanuhsu", "state" : "TN", "zip" : "87894" }, { "street" : "816 Tani Court", "city" : "Jitmeus", "state" : "NY", "zip" : "39870" }, { "street" : "1481 Titi Point", "city" : "Mamugpe", "state" : "ND", "zip" : "23850" } ], "_id" : { "$oid" : "53b5ae6fa183684515d767fb" } }
{ "name" : "Aiden Nguyen", "address" : [ { "street" : "1387 Lujehi Drive", "city" : "Utekageg", "state" : "MN", "zip" : "57078" }, { "street" : "577 Jezu Parkway", "city" : "Zichiaw", "state" : "OH", "zip" : "04539" } ], "_id" : { "$oid" : "53b5ae6fa183684515d767fc" } }
{ "name" : "Mae Morgan", "address" : [ { "street" : "1468 Cumob River", "city" : "Jazarwoc", "state" : "NV", "zip" : "47494" } ], "_id" : { "$oid" : "53b5ae6fa183684515d767fd" } }
{ "name" : "Grace Henderson", "address" : [ { "street" : "704 Gijo Manor", "city" : "Casizwu", "state" : "AR", "zip" : "22670" } ], "_id" : { "$oid" : "53b5ae6fa183684515d767fe" } }
{ "name" : "James Holland", "address" : [ { "street" : "1413 Utera Pike", "city" : "Jonkaiw", "state" : "DE", "zip" : "14127" }, { "street" : "1242 Nizpi Point", "city" : "Cazjeme", "state" : "TN", "zip" : "70312" } ], "_id" : { "$oid" : "53b5ae6fa183684515d767ff" } }
{ "name" : "Fred Nichols", "address" : [ { "street" : "573 Dezlud Park", "city" : "Naekam", "state" : "MT", "zip" : "89034" }, { "street" : "622 Puwe Point", "city" : "Jepjovav", "state" : "IL", "zip" : "90565" }, { "street" : "608 Jizpe Heights", "city" : "Uduzjag", "state" : "MO", "zip" : "05226" } ], "_id" : { "$oid" : "53b5ae6fa183684515d76800" } }
{ "name" : "Irene Vaughn", "address" : [ { "street" : "271 Soehu Drive", "city" : "Ertobwom", "state" : "NH", "zip" : "03715" }, { "street" : "1082 Wojrot Trail", "city" : "Rafemcu", "state" : "ME", "zip" : "80603" } ], "_id" : { "$oid" : "53b5ae6fa183684515d76801" } }
{ "name" : "Kathryn King", "address" : [ { "street" : "1560 Icata Loop", "city" : "Fonukif", "state" : "KY", "zip" : "89967" }, { "street" : "1750 Mufu Street", "city" : "Lurupi", "state" : "LA", "zip" : "12737" }, { "street" : "1137 Asaoje Pike", "city" : "Uvabegan", "state" : "WY", "zip" : "12928" } ], "_id" : { "$oid" : "53b5ae6fa183684515d76802" } }
{ "name" : "Terry Hall", "address" : [ { "street" : "1790 Vamel Place", "city" : "Ebcawo", "state" : "AL", "zip" : "92014" }, { "street" : "224 Fibno View", "city" : "Momipi", "state" : "AR", "zip" : "23974" }, { "street" : "793 Kescos Pike", "city" : "Holelivuh", "state" : "KY", "zip" : "37605" } ], "_id" : { "$oid" : "53b5ae6fa183684515d76803" } }
{ "name" : "Josie Ortiz", "address" : [ { "street" : "655 Tarce Mill", "city" : "Ladzeka", "state" : "TX", "zip" : "18890" }, { "street" : "1021 Ketgo Key", "city" : "Lecsuden", "state" : "NM", "zip" : "74653" } ], "_id" : { "$oid" : "53b5ae6fa183684515d76804" } }
{ "name" : "Fred Ramirez", "address" : [ { "street" : "1836 Lebo Circle", "city" : "Nerofab", "state" : "WV", "zip" : "81647" } ], "_id" : { "$oid" : "53b5ae6fa183684515d76805" } }
{ "name" : "Barbara Gibson", "address" : [ { "street" : "1058 Beon Boulevard", "city" : "Amoumihaw", "state" : "CO", "zip" : "16759" }, { "street" : "418 Mucuw Highway", "city" : "Busboop", "state" : "MO", "zip" : "34625" } ], "_id" : { "$oid" : "53b5ae6fa183684515d76806" } }
{ "name" : "Maurice Long", "address" : [ { "street" : "1115 Azna Trail", "city" : "Buheuv", "state" : "UT", "zip" : "96205" }, { "street" : "1409 Recit Lane", "city" : "Mofciler", "state" : "CT", "zip" : "05142" } ], "_id" : { "$oid" : "53b5ae6fa183684515d76807" } }
{ "name" : "Cecelia Schmidt", "address" : [ { "street" : "400 Nissud Trail", "city" : "Nuadmaw", "state" : "NH", "zip" : "59319" }, { "street" : "1665 Ufze Turnpike", "city" : "Pazobiz", "state" : "CO", "zip" : "72638" } ], "_id" : { "$oid" : "53b5ae6fa183684515d76808" } }
{ "name" : "Jackson McGee", "address" : [ { "street" : "1133 Vesa Manor", "city" : "Ukbamzun", "state" : "UT", "zip" : "76173" } ], "_id" : { "$oid" : "53b5ae6fa183684515d76809" } }
{ "name" : "Steven Lowe", "address" : [ { "street" : "1937 Huru Center", "city" : "Kuupeta", "state" : "VT", "zip" : "54114" }, { "street" : "1408 Pukgud Point", "city" : "Afedbuf", "state" : "GA", "zip" : "83550" }, { "street" : "929 Tuclag Point", "city" : "Tienupe", "state" : "CO", "zip" : "61954" } ], "_id" : { "$oid" : "53b5ae6fa183684515d7680a" } }
{ "name" : "Minerva Strickland", "address" : [ { "street" : "1795 Geda Manor", "city" : "Zaforece", "state" : "GA", "zip" : "42387" }, { "street" : "1203 Paktog Point", "city" : "Headki", "state" : "MT", "zip" : "98465" } ], "_id" : { "$oid" : "53b5ae6fa183684515d7680b" } }
{ "name" : "Bryan Nash", "address" : [ { "street" : "1430 Zebru Pike", "city" : "Zarbiof", "state" : "KS", "zip" : "45945" }, { "street" : "855 Onoho Way", "city" : "Mabazemo", "state" : "RI", "zip" : "59042" } ], "_id" : { "$oid" : "53b5ae6fa183684515d7680c" } }
{ "name" : "Lee Jensen", "address" : [ { "street" : "1866 Veag Key", "city" : "Nudikas", "state" : "SC", "zip" : "38850" }, { "street" : "813 Rarer Turnpike", "city" : "Meloglab", "state" : "CT", "zip" : "37271" }, { "street" : "1476 Igosic Terrace", "city" : "Fercahjo", "state" : "ND", "zip" : "35674" } ], "_id" : { "$oid" : "53b5ae6fa183684515d7680d" } }
{ "name" : "Cory McCarthy", "address" : [ { "street" : "1688 Akaz Grove", "city" : "Gifirvic", "state" : "GA", "zip" : "86613" }, { "street" : "1187 Disce Junction", "city" : "Musbuofu", "state" : "DE", "zip" : "35498" } ], "_id" : { "$oid" : "53b5ae6fa183684515d7680e" } }
{ "name" : "Devin Cummings", "address" : [ { "street" : "746 Dapum Lane", "city" : "Momaife", "state" : "IA", "zip" : "13853" }, { "street" : "960 Taropi Junction", "city" : "Pikdolif", "state" : "NH", "zip" : "42308" }, { "street" : "1855 Biso Glen", "city" : "Cazjeza", "state" : "NH", "zip" : "28239" } ], "_id" : { "$oid" : "53b5ae6fa183684515d7680f" } }
{ "name" : "Eric Fernandez", "address" : [ { "street" : "641 Icodu Way", "city" : "Vulgippo", "state" : "AZ", "zip" : "54737" }, { "street" : "567 Zopni Grove", "city" : "Tejnegi", "state" : "ME", "zip" : "06252" } ], "_id" : { "$oid" : "53b5ae6fa183684515d76810" } }
{ "name" : "Lottie Gonzales", "address" : [ { "street" : "1467 Laupo Highway", "city" : "Midegi", "state" : "OK", "zip" : "54591" }, { "street" : "144 Lufe Pike", "city" : "Gupirni", "state" : "TX", "zip" : "98780" } ], "_id" : { "$oid" : "53b5ae6fa183684515d76811" } }
{ "name" : "Emily Maxwell", "address" : [ { "street" : "1225 Evac Court", "city" : "Hadubuc", "state" : "PA", "zip" : "86955" }, { "street" : "1300 Kirhig Court", "city" : "Fozaepo", "state" : "RI", "zip" : "80693" }, { "street" : "447 Selva Heights", "city" : "Focbuazu", "state" : "MS", "zip" : "15088" } ], "_id" : { "$oid" : "53b5ae6fa183684515d76812" } }
{ "name" : "Addie Clayton", "address" : [ { "street" : "1506 Bove Grove", "city" : "Zasita", "state" : "KS", "zip" : "32594" }, { "street" : "1074 Titowi Key", "city" : "Vomaelu", "state" : "MD", "zip" : "26776" }, { "street" : "1628 Bolrig Center", "city" : "Afatiuv", "state" : "OR", "zip" : "77287" } ], "_id" : { "$oid" : "53b5ae6fa183684515d76813" } }
{ "name" : "Warren Hamilton", "address" : [ { "street" : "1414 Neze River", "city" : "Kajiwer", "state" : "OR", "zip" : "58687" }, { "street" : "1542 Epibow River", "city" : "Vowhavger", "state" : "OK", "zip" : "34330" }, { "street" : "472 Dadu Grove", "city" : "Gavfufa", "state" : "ND", "zip" : "99147" } ], "_id" : { "$oid" : "53b5ae6fa183684515d76814" } }
{ "name" : "Sara Ballard", "address" : [ { "street" : "1200 Luvza Ridge", "city" : "Kucibuk", "state" : "NE", "zip" : "02355" } ], "_id" : { "$oid" : "53b5ae6fa183684515d76815" } }
{ "name" : "Estelle Phillips", "address" : [ { "street" : "714 Edba Park", "city" : "Fasugiw", "state" : "WI", "zip" : "88111" }, { "street" : "1608 Wawuvi Square", "city" : "Dumowo", "state" : "WI", "zip" : "18569" } ], "_id" : { "$oid" : "53b5ae6fa183684515d76816" } }
{ "name" : "James Foster", "address" : [ { "street" : "530 Megir Lane", "city" : "Zeibooha", "state" : "CO", "zip" : "74618" }, { "street" : "817 Bucsop Turnpike", "city" : "Cuklopaj", "state" : "WY", "zip" : "73490" }, { "street" : "647 Acetul Heights", "city" : "Sujohu", "state" : "NC", "zip" : "08010" } ], "_id" : { "$oid" : "53b5ae6fa183684515d76817" } }
{ "name" : "Sylvia Hicks", "address" : [ { "street" : "1496 Zule Center", "city" : "Lipetodod", "state" : "OH", "zip" : "95805" }, { "street" : "612 Riod Trail", "city" : "Apbubiw", "state" : "NV", "zip" : "23707" } ], "_id" : { "$oid" : "53b5ae6fa183684515d76818" } }
{ "name" : "Martin Collier", "address" : [ { "street" : "1880 Iwoal Road", "city" : "Dolufo", "state" : "TX", "zip" : "81903" } ], "_id" : { "$oid" : "53b5ae6fa183684515d76819" } }
{ "name" : "Minerva Watson", "address" : [ { "street" : "1744 Ewib Heights", "city" : "Abekofek", "state" : "KS", "zip" : "97131" }, { "street" : "1803 Ociuj Point", "city" : "Iwuepolu", "state" : "ME", "zip" : "84768" }, { "street" : "552 Basav Point", "city" : "Nirunke", "state" : "AR", "zip" : "58454" } ], "_id" : { "$oid" : "53b5ae6fa183684515d7681a" } }
{ "name" : "Sarah Bryant", "address" : [ { "street" : "919 Nusof Glen", "city" : "Kavmukve", "state" : "UT", "zip" : "33172" }, { "street" : "235 Bubor Path", "city" : "Wiblokin", "state" : "GA", "zip" : "32970" } ], "_id" : { "$oid" : "53b5ae6fa183684515d7681b" } }
{ "name" : "Mittie Brewer", "address" : [ { "street" : "530 Mikzek Point", "city" : "Womorut", "state" : "NM", "zip" : "19183" }, { "street" : "1994 Hoob Pass", "city" : "Calnegsi", "state" : "CA", "zip" : "87381" } ], "_id" : { "$oid" : "53b5ae6fa183684515d7681c" } }
{ "name" : "Max Rivera", "address" : [ { "street" : "31 Paaci River", "city" : "Ruufive", "state" : "RI", "zip" : "00111" } ], "_id" : { "$oid" : "53b5ae6fa183684515d7681d" } }
{ "name" : "Myrtie Hopkins", "address" : [ { "street" : "415 Ukuzu Court", "city" : "Fenpiiw", "state" : "TN", "zip" : "57570" }, { "street" : "1485 Bekwub River", "city" : "Raclebeg", "state" : "FL", "zip" : "00897" } ], "_id" : { "$oid" : "53b5ae6fa183684515d7681e" } }
{ "name" : "Allen Warren", "address" : [ { "street" : "1544 Siwem Pike", "city" : "Puferufi", "state" : "IL", "zip" : "39882" }, { "street" : "1088 Fomak Way", "city" : "Bukiegu", "state" : "HI", "zip" : "28767" } ], "_id" : { "$oid" : "53b5ae6fa183684515d7681f" } }
{ "name" : "Adeline Lawson", "address" : [ { "street" : "895 Wilazi Glen", "city" : "Lawtocafu", "state" : "IA", "zip" : "05491" } ], "_id" : { "$oid" : "53b5ae6fa183684515d76820" } }
{ "name" : "Carrie Sutton", "address" : [ { "street" : "400 Jiiva Highway", "city" : "Lebgulag", "state" : "FL", "zip" : "55465" }, { "street" : "91 Saze Circle", "city" : "Tevinvir", "state" : "MT", "zip" : "64138" } ], "_id" : { "$oid" : "53b5ae6fa183684515d76821" } }
{ "name" : "Helena Bryan", "address" : [ { "street" : "43 Sigon Court", "city" : "Fohekavok", "state" : "RI", "zip" : "72779" }, { "street" : "480 Cacijo View", "city" : "Faisju", "state" : "PA", "zip" : "32459" }, { "street" : "35 Widpas Avenue", "city" : "Edbauf", "state" : "VA", "zip" : "80012" } ], "_id" : { "$oid" : "53b5ae6fa183684515d76822" } }
{ "name" : "Jacob Keller", "address" : [ { "street" : "103 Otraw River", "city" : "Wuwucmu", "state" : "NM", "zip" : "51827" }, { "street" : "843 Gito Plaza", "city" : "Fauhedic", "state" : "ID", "zip" : "50332" } ], "_id" : { "$oid" : "53b5ae6fa183684515d76823" } }
{ "name" : "Elva Klein", "address" : [ { "street" : "1435 Wate Circle", "city" : "Atunujej", "state" : "ID", "zip" : "10088" } ], "_id" : { "$oid" : "53b5ae6fa183684515d76824" } }
{ "name" : "Evelyn Lane", "address" : [ { "street" : "999 Getiv Path", "city" : "Abhibewe", "state" : "WI", "zip" : "20714" } ], "_id" : { "$oid" : "53b5ae6fa183684515d76825" } }
{ "name" : "Chester Lambert", "address" : [ { "street" : "1468 Eboiwe Court", "city" : "Lafidnar", "state" : "KY", "zip" : "62987" } ], "_id" : { "$oid" : "53b5ae6fa183684515d76826" } }
{ "name" : "Sean McCarthy", "address" : [ { "street" : "31 Toome Road", "city" : "Ufeirko", "state" : "VT", "zip" : "65798" } ], "_id" : { "$oid" : "53b5ae6fa183684515d76827" } }
{ "name" : "Francisco Stephens", "address" : [ { "street" : "379 Batevi Avenue", "city" : "Pojriro", "state" : "PA", "zip" : "48036" }, { "street" : "1474 Haiv Road", "city" : "Mehizli", "state" : "CA", "zip" : "35380" } ], "_id" : { "$oid" : "53b5ae6fa183684515d76828" } }
{ "name" : "Elsie Figueroa", "address" : [ { "street" : "223 Putjok Pass", "city" : "Tubosibe", "state" : "RI", "zip" : "55999" }, { "street" : "1680 Zika View", "city" : "Supeus", "state" : "TN", "zip" : "97584" }, { "street" : "202 Lujha View", "city" : "Sabalni", "state" : "RI", "zip" : "06680" } ], "_id" : { "$oid" : "53b5ae6fa183684515d76829" } }
{ "name" : "Viola Watson", "address" : [ { "street" : "969 Fucja Square", "city" : "Nopbarkaw", "state" : "KY", "zip" : "64107" }, { "street" : "102 Rizena Turnpike", "city" : "Nezzubij", "state" : "UT", "zip" : "64849" }, { "street" : "202 Wuhkak Grove", "city" : "Ateesudig", "state" : "GA", "zip" : "55049" } ], "_id" : { "$oid" : "53b5ae6fa183684515d7682a" } }
{ "name" : "Phillip Schmidt", "address" : [ { "street" : "687 Napo Path", "city" : "Ciwkeab", "state" : "AZ", "zip" : "90778" } ], "_id" : { "$oid" : "53b5ae6fa183684515d7682b" } }
{ "name" : "Nicholas Lewis", "address" : [ { "street" : "1903 Kodsiw Avenue", "city" : "Wemikzu", "state" : "CT", "zip" : "71446" }, { "street" : "1404 Gacas Key", "city" : "Anosipzu", "state" : "IL", "zip" : "30882" }, { "street" : "1672 Wanuw Circle", "city" : "Ewgahetu", "state" : "OK", "zip" : "72932" } ], "_id" : { "$oid" : "53b5ae6fa183684515d7682c" } }
{ "name" : "Beulah Ward", "address" : [ { "street" : "1871 Uvawop Trail", "city" : "Keuwoto", "state" : "OK", "zip" : "85495" } ], "_id" : { "$oid" : "53b5ae6fa183684515d7682d" } }
{ "name" : "Nathan Terry", "address" : [ { "street" : "428 Uveca Place", "city" : "Rucoreja", "state" : "MA", "zip" : "77441" }, { "street" : "1530 Tahi Parkway", "city" : "Zonduje", "state" : "GA", "zip" : "17795" }, { "street" : "1639 Zako Pike", "city" : "Hobmiret", "state" : "KY", "zip" : "75461" } ], "_id" : { "$oid" : "53b5ae6fa183684515d7682e" } }
{ "name" : "Katharine Rhodes", "address" : [ { "street" : "1122 Hefme Junction", "city" : "Micigze", "state" : "DE", "zip" : "09815" }, { "street" : "580 Tigi Turnpike", "city" : "Gulbebdoz", "state" : "AL", "zip" : "03559" } ], "_id" : { "$oid" : "53b5ae6fa183684515d7682f" } }
{ "name" : "Sally Peters", "address" : [ { "street" : "1855 Guwiw Place", "city" : "Zilketa", "state" : "OR", "zip" : "34287" }, { "street" : "1028 Jocu Park", "city" : "Kausaniw", "state" : "MT", "zip" : "59862" }, { "street" : "1974 Iroju Key", "city" : "Sidnenci", "state" : "NJ", "zip" : "58859" } ], "_id" : { "$oid" : "53b5ae6fa183684515d76830" } }
{ "name" : "Connor Carson", "address" : [ { "street" : "1140 Jaepi Boulevard", "city" : "Urkuda", "state" : "TX", "zip" : "58474" }, { "street" : "471 Fokre Avenue", "city" : "Awuline", "state" : "OR", "zip" : "13565" } ], "_id" : { "$oid" : "53b5ae6fa183684515d76831" } }
{ "name" : "Lillian Roy", "address" : [ { "street" : "472 Tidaz Square", "city" : "Buebufov", "state" : "UT", "zip" : "39921" } ], "_id" : { "$oid" : "53b5ae6fa183684515d76832" } }
{ "name" : "Clayton Greene", "address" : [ { "street" : "1460 Kiptu Pass", "city" : "Wipoloisu", "state" : "OK", "zip" : "46118" }, { "street" : "762 Pejto Loop", "city" : "Bagheipi", "state" : "KS", "zip" : "38639" } ], "_id" : { "$oid" : "53b5ae6fa183684515d76833" } }
{ "name" : "Amelia Pope", "address" : [ { "street" : "222 Suswaw Drive", "city" : "Bunuptas", "state" : "IL", "zip" : "98620" }, { "street" : "949 Gocog Terrace", "city" : "Rujeko", "state" : "KS", "zip" : "89887" } ], "_id" : { "$oid" : "53b5ae6fa183684515d76834" } }
{ "name" : "Jacob Brady", "address" : [ { "street" : "469 Puut Terrace", "city" : "Obenaza", "state" : "AL", "zip" : "02276" } ], "_id" : { "$oid" : "53b5ae6fa183684515d76835" } }
{ "name" : "Adele Cooper", "address" : [ { "street" : "1436 Lofaci Key", "city" : "Endowug", "state" : "LA", "zip" : "73463" }, { "street" : "599 Ocuivo Plaza", "city" : "Pakewo", "state" : "SD", "zip" : "92902" }, { "street" : "551 Tuza Boulevard", "city" : "Ufiguav", "state" : "UT", "zip" : "90735" } ], "_id" : { "$oid" : "53b5ae6fa183684515d76836" } }
{ "name" : "Noah Gutierrez", "address" : [ { "street" : "1051 Taho Drive", "city" : "Behetom", "state" : "IN", "zip" : "77699" }, { "street" : "1307 Tovob Path", "city" : "Tefesi", "state" : "IN", "zip" : "54862" } ], "_id" : { "$oid" : "53b5ae6fa183684515d76837" } }
{ "name" : "Andre Dixon", "address" : [ { "street" : "1668 Cimve Junction", "city" : "Haufudu", "state" : "DC", "zip" : "43883" } ], "_id" : { "$oid" : "53b5ae6fa183684515d76838" } }
{ "name" : "Brian Hubbard", "address" : [ { "street" : "1251 Pomre Trail", "city" : "Ajwove", "state" : "PA", "zip" : "09747" }, { "street" : "172 Gezju Heights", "city" : "Juganole", "state" : "NC", "zip" : "58443" } ], "_id" : { "$oid" : "53b5ae6fa183684515d76839" } }
{ "name" : "Lester Yates", "address" : [ { "street" : "258 Vifov Road", "city" : "Datlizep", "state" : "ME", "zip" : "78301" }, { "street" : "983 Cozu Extension", "city" : "Vuhubnic", "state" : "AL", "zip" : "73978" }, { "street" : "1814 Nejca Turnpike", "city" : "Robupo", "state" : "AR", "zip" : "30646" } ], "_id" : { "$oid" : "53b5ae6fa183684515d7683a" } }
{ "name" : "John Poole", "address" : [ { "street" : "388 Fohop Grove", "city" : "Fulunawim", "state" : "NC", "zip" : "39318" }, { "street" : "175 Vesvu Trail", "city" : "Orizagig", "state" : "MD", "zip" : "26792" } ], "_id" : { "$oid" : "53b5ae6fa183684515d7683b" } }
{ "name" : "Arthur Gonzalez", "address" : [ { "street" : "1235 Kive Heights", "city" : "Aggimsig", "state" : "KY", "zip" : "59048" }, { "street" : "1424 Avba Loop", "city" : "Fejothe", "state" : "MD", "zip" : "62538" } ], "_id" : { "$oid" : "53b5ae6fa183684515d7683c" } }
{ "name" : "Donald Patton", "address" : [ { "street" : "1656 Rubcep Road", "city" : "Lahola", "state" : "MT", "zip" : "21632" } ], "_id" : { "$oid" : "53b5ae6fa183684515d7683d" } }
{ "name" : "Daisy Jefferson", "address" : [ { "street" : "1537 Akazi Mill", "city" : "Pepukad", "state" : "IA", "zip" : "59467" }, { "street" : "1529 Temeke Key", "city" : "Dozoebu", "state" : "CO", "zip" : "59878" }, { "street" : "183 Siec Court", "city" : "Muvileb", "state" : "MT", "zip" : "64269" } ], "_id" : { "$oid" : "53b5ae6fa183684515d7683e" } }
{ "name" : "Isaiah Williamson", "address" : [ { "street" : "1792 Jupa Junction", "city" : "Gemkunad", "state" : "GA", "zip" : "25323" } ], "_id" : { "$oid" : "53b5ae6fa183684515d7683f" } }
{ "name" : "Dustin Barnett", "address" : [ { "street" : "733 Zoppo Street", "city" : "Suobap", "state" : "CO", "zip" : "86453" }, { "street" : "1710 Ziofo Point", "city" : "Geguek", "state" : "MN", "zip" : "73207" }, { "street" : "237 Sosaj Path", "city" : "Sirhizu", "state" : "AR", "zip" : "81660" } ], "_id" : { "$oid" : "53b5ae6fa183684515d76840" } }
{ "name" : "Ella Kelly", "address" : [ { "street" : "1480 Udirac Turnpike", "city" : "Fedopigu", "state" : "GA", "zip" : "81225" } ], "_id" : { "$oid" : "53b5ae6fa183684515d76841" } }
{ "name" : "Craig Perez", "address" : [ { "street" : "376 Ebki Highway", "city" : "Nockoev", "state" : "MT", "zip" : "91801" } ], "_id" : { "$oid" : "53b5ae6fa183684515d76842" } }
{ "name" : "Bruce Owen", "address" : [ { "street" : "957 Apizus Point", "city" : "Rolguget", "state" : "LA", "zip" : "29839" } ], "_id" : { "$oid" : "53b5ae6fa183684515d76843" } }
{ "name" : "Lula Banks", "address" : [ { "street" : "1005 Biziw Ridge", "city" : "Nabpoluv", "state" : "HI", "zip" : "47835" }, { "street" : "1687 Zudgud Drive", "city" : "Dajefa", "state" : "MD", "zip" : "99059" }, { "street" : "1223 Polpe Court", "city" : "Reolsa", "state" : "FL", "zip" : "61756" } ], "_id" : { "$oid" : "53b5ae6fa183684515d76844" } }
{ "name" : "Ricky Thompson", "address" : [ { "street" : "1288 Viduvi Extension", "city" : "Owejerojo", "state" : "WV", "zip" : "50386" }, { "street" : "476 Patceb Pike", "city" : "Ohidane", "state" : "ND", "zip" : "72721" } ], "_id" : { "$oid" : "53b5ae6fa183684515d76845" } }
{ "name" : "Luella Berry", "address" : [ { "street" : "86 Pasroh Road", "city" : "Dojepsan", "state" : "MA", "zip" : "21047" } ], "_id" : { "$oid" : "53b5ae6fa183684515d76846" } }
{ "name" : "Jeremiah James", "address" : [ { "street" : "500 Dade Circle", "city" : "Sawnedsij", "state" : "DC", "zip" : "29595" }, { "street" : "1693 Vavman Manor", "city" : "Jezeze", "state" : "PA", "zip" : "30692" }, { "street" : "1722 Oplo Terrace", "city" : "Zuldike", "state" : "HI", "zip" : "49443" } ], "_id" : { "$oid" : "53b5ae6fa183684515d76847" } }
{ "name" : "Landon Perkins", "address" : [ { "street" : "1364 Jiruta Mill", "city" : "Okcugi", "state" : "IA", "zip" : "14461" } ], "_id" : { "$oid" : "53b5ae6fa183684515d76848" } }
{ "name" : "Samuel Beck", "address" : [ { "street" : "963 Sojta Path", "city" : "Mecpogu", "state" : "OR", "zip" : "64865" }, { "street" : "659 Kuta Point", "city" : "Matotopa", "state" : "GA", "zip" : "69350" }, { "street" : "925 Kusha Square", "city" : "Pucibbo", "state" : "NJ", "zip" : "85234" } ], "_id" : { "$oid" : "53b5ae6fa183684515d76849" } }
{ "name" : "Jason Bowman", "address" : [ { "street" : "172 Kujos Drive", "city" : "Hifhoze", "state" : "MT", "zip" : "44856" }, { "street" : "1040 Durteb Extension", "city" : "Avaffal", "state" : "NY", "zip" : "98944" }, { "street" : "190 Fikel Turnpike", "city" : "Zefizni", "state" : "IL", "zip" : "20756" } ], "_id" : { "$oid" : "53b5ae6fa183684515d7684a" } }
{ "name" : "Alberta Elliott", "address" : [ { "street" : "625 Ibujo Place", "city" : "Okhanom", "state" : "WY", "zip" : "29711" }, { "street" : "334 Jughah Center", "city" : "Nuwzitil", "state" : "AK", "zip" : "19445" }, { "street" : "987 Batos Square", "city" : "Tugujruz", "state" : "DE", "zip" : "99241" } ], "_id" : { "$oid" : "53b5ae6fa183684515d7684b" } }
{ "name" : "Herman Mann", "address" : [ { "street" : "615 Gowba Key", "city" : "Meezok", "state" : "CT", "zip" : "34583" } ], "_id" : { "$oid" : "53b5ae6fa183684515d7684c" } }
{ "name" : "Hallie Long", "address" : [ { "street" : "976 Foiwa Loop", "city" : "Cogpoowo", "state" : "NY", "zip" : "05072" }, { "street" : "923 Zojoku Road", "city" : "Jilgobga", "state" : "RI", "zip" : "35543" } ], "_id" : { "$oid" : "53b5ae6fa183684515d7684d" } }
{ "name" : "Gavin Padilla", "address" : [ { "street" : "1292 Lujzug Key", "city" : "Lelojo", "state" : "OH", "zip" : "47421" } ], "_id" : { "$oid" : "53b5ae6fa183684515d7684e" } }
{ "name" : "Lora Stevenson", "address" : [ { "street" : "200 Ucubut Turnpike", "city" : "Ribivev", "state" : "WY", "zip" : "99625" }, { "street" : "337 Zonep Mill", "city" : "Ipsaiba", "state" : "CO", "zip" : "28046" } ], "_id" : { "$oid" : "53b5ae6fa183684515d7684f" } }
{ "name" : "Peter Mullins", "address" : [ { "street" : "734 Macep Park", "city" : "Sihuhbok", "state" : "CT", "zip" : "43007" }, { "street" : "392 Ascon Center", "city" : "Cosufim", "state" : "AR", "zip" : "63373" } ], "_id" : { "$oid" : "53b5ae6fa183684515d76850" } }
{ "name" : "Gordon Logan", "address" : [ { "street" : "1448 Lirwor Circle", "city" : "Linlagur", "state" : "CO", "zip" : "83365" } ], "_id" : { "$oid" : "53b5ae6fa183684515d76851" } }
{ "name" : "Matthew Klein", "address" : [ { "street" : "843 Lozec Road", "city" : "Febpimkoz", "state" : "WA", "zip" : "73164" }, { "street" : "1472 Hamtu Junction", "city" : "Kaceba", "state" : "CT", "zip" : "85286" }, { "street" : "1510 Nupas Court", "city" : "Raakha", "state" : "IL", "zip" : "11744" } ], "_id" : { "$oid" : "53b5ae6fa183684515d76852" } }
{ "name" : "Martha Frazier", "address" : [ { "street" : "518 Ruzi Key", "city" : "Bunavu", "state" : "MI", "zip" : "08148" }, { "street" : "450 Buvwar Trail", "city" : "Jeudlec", "state" : "PA", "zip" : "70901" } ], "_id" : { "$oid" : "53b5ae6fa183684515d76853" } }
{ "name" : "Jeanette Stone", "address" : [ { "street" : "700 Ukupi Trail", "city" : "Giweohe", "state" : "CO", "zip" : "99116" }, { "street" : "1306 Satza Turnpike", "city" : "Ockiec", "state" : "MS", "zip" : "38059" }, { "street" : "1918 Vimi Center", "city" : "Pezawiso", "state" : "HI", "zip" : "24870" } ], "_id" : { "$oid" : "53b5ae6fa183684515d76854" } }
{ "name" : "Jared Austin", "address" : [ { "street" : "866 Davhu Center", "city" : "Juztaguc", "state" : "MT", "zip" : "08594" }, { "street" : "668 Uclup Turnpike", "city" : "Degohoiva", "state" : "NV", "zip" : "84433" }, { "street" : "128 Ugfim Parkway", "city" : "Bijammur", "state" : "GA", "zip" : "21903" } ], "_id" : { "$oid" : "53b5ae6fa183684515d76855" } }
{ "name" : "Ann Alexander", "address" : [ { "street" : "1426 Woni Pass", "city" : "Pirazeru", "state" : "UT", "zip" : "50090" }, { "street" : "156 Batda Junction", "city" : "Ecobece", "state" : "ID", "zip" : "35471" }, { "street" : "1810 Juhud Ridge", "city" : "Jidhihel", "state" : "CA", "zip" : "04960" } ], "_id" : { "$oid" : "53b5ae6fa183684515d76856" } }
{ "name" : "Steven Klein", "address" : [ { "street" : "1993 Visin Heights", "city" : "Formupemo", "state" : "NE", "zip" : "15726" } ], "_id" : { "$oid" : "53b5ae6fa183684515d76857" } }
{ "name" : "Callie Castro", "address" : [ { "street" : "333 Nusaza Lane", "city" : "Uknenje", "state" : "NY", "zip" : "12878" } ], "_id" : { "$oid" : "53b5ae6fa183684515d76858" } }
{ "name" : "Lelia Park", "address" : [ { "street" : "551 Huctez Drive", "city" : "Neszescof", "state" : "LA", "zip" : "50381" }, { "street" : "746 Rora Glen", "city" : "Dajsuiri", "state" : "OR", "zip" : "14279" } ], "_id" : { "$oid" : "53b5ae6fa183684515d76859" } }
{ "name" : "Chester Klein", "address" : [ { "street" : "1575 Lipis Lane", "city" : "Riusboz", "state" : "PA", "zip" : "05094" }, { "street" : "218 Unakew Center", "city" : "Horogwa", "state" : "MT", "zip" : "81983" } ], "_id" : { "$oid" : "53b5ae6fa183684515d7685a" } }
