{ "name" : "Mildred Love", "address" : { "street" : "1002 Bablu Center", "city" : "Tutupzog", "state" : "TX", "zip" : "62876" }, "_id" : { "$oid" : "53b5ae6b15e9d54415a1578d" } }
{ "name" : "Lettie Ford", "address" : { "street" : "1668 Evegis Glen", "city" : "Esomazo", "state" : "ID", "zip" : "10381" }, "_id" : { "$oid" : "53b5ae6b15e9d54415a1578e" } }
{ "name" : "Iva Walker", "address" : { "street" : "1305 Lavron Road", "city" : "Toweada", "state" : "IN", "zip" : "65294" }, "_id" : { "$oid" : "53b5ae6b15e9d54415a1578f" } }
{ "name" : "Alberta Lloyd", "address" : { "street" : "809 Vahzak Plaza", "city" : "Izfodat", "state" : "AZ", "zip" : "57589" }, "_id" : { "$oid" : "53b5ae6b15e9d54415a15790" } }
{ "name" : "Hettie Fleming", "address" : { "street" : "1910 Migac Extension", "city" : "Dakice", "state" : "OK", "zip" : "55440" }, "_id" : { "$oid" : "53b5ae6b15e9d54415a15791" } }
{ "name" : "Nannie Abbott", "address" : { "street" : "1147 Iniaz Grove", "city" : "Idmofugu", "state" : "FL", "zip" : "14578" }, "_id" : { "$oid" : "53b5ae6b15e9d54415a15792" } }
{ "name" : "Virginia Kelley", "address" : { "street" : "693 Iwunin Glen", "city" : "Ruvuraz", "state" : "LA", "zip" : "26845" }, "_id" : { "$oid" : "53b5ae6b15e9d54415a15793" } }
{ "name" : "Martha Ortega", "address" : { "street" : "1938 Modo Circle", "city" : "Nojuub", "state" : "MI", "zip" : "65581" }, "_id" : { "$oid" : "53b5ae6b15e9d54415a15794" } }
{ "name" : "Sophia Jefferson", "address" : { "street" : "1712 Imuem Highway", "city" : "Renosgef", "state" : "NJ", "zip" : "56056" }, "_id" : { "$oid" : "53b5ae6b15e9d54415a15795" } }
{ "name" : "Emily Kim", "address" : { "street" : "1720 Fihas Avenue", "city" : "Okamoler", "state" : "UT", "zip" : "03716" }, "_id" : { "$oid" : "53b5ae6b15e9d54415a15796" } }
{ "name" : "Marcus Schwartz", "address" : { "street" : "1965 Daumi Plaza", "city" : "Igapumoz", "state" : "WV", "zip" : "12066" }, "_id" : { "$oid" : "53b5ae6b15e9d54415a15797" } }
{ "name" : "Hulda Knight", "address" : { "street" : "1034 Jeje Street", "city" : "Lemlole", "state" : "CO", "zip" : "29625" }, "_id" : { "$oid" : "53b5ae6b15e9d54415a15798" } }
{ "name" : "Katharine Graham", "address" : { "street" : "380 Veuw View", "city" : "Vujivi", "state" : "AL", "zip" : "40976" }, "_id" : { "$oid" : "53b5ae6b15e9d54415a15799" } }
{ "name" : "Jeffrey Franklin", "address" : { "street" : "621 Wophe Court", "city" : "Tucales", "state" : "NY", "zip" : "28684" }, "_id" : { "$oid" : "53b5ae6b15e9d54415a1579a" } }
{ "name" : "Eva Luna", "address" : { "street" : "1439 Lokfi Turnpike", "city" : "Fegdudla", "state" : "PA", "zip" : "18338" }, "_id" : { "$oid" : "53b5ae6b15e9d54415a1579b" } }
{ "name" : "Bill Elliott", "address" : { "street" : "1476 Ipoili Manor", "city" : "Miowenis", "state" : "CA", "zip" : "08716" }, "_id" : { "$oid" : "53b5ae6b15e9d54415a1579c" } }
{ "name" : "Millie Graves", "address" : { "street" : "1650 Poeho Parkway", "city" : "Zoitgif", "state" : "IL", "zip" : "94326" }, "_id" : { "$oid" : "53b5ae6b15e9d54415a1579d" } }
{ "name" : "Sallie Murray", "address" : { "street" : "651 Apijek Heights", "city" : "Limoku", "state" : "NM", "zip" : "68688" }, "_id" : { "$oid" : "53b5ae6b15e9d54415a1579e" } }
{ "name" : "Louisa Daniels", "address" : { "street" : "1284 Cufu Grove", "city" : "Usiforfo", "state" : "SC", "zip" : "66066" }, "_id" : { "$oid" : "53b5ae6b15e9d54415a1579f" } }
{ "name" : "Evan Lyons", "address" : { "street" : "17 Guvbaw Manor", "city" : "Ulfuja", "state" : "NV", "zip" : "71146" }, "_id" : { "$oid" : "53b5ae6b15e9d54415a157a0" } }
{ "name" : "Elmer Marsh", "address" : { "street" : "552 Naib Drive", "city" : "Rivivta", "state" : "WY", "zip" : "32065" }, "_id" : { "$oid" : "53b5ae6b15e9d54415a157a1" } }
{ "name" : "Darrell Ross", "address" : { "street" : "602 Dorag Trail", "city" : "Zorovho", "state" : "VT", "zip" : "73405" }, "_id" : { "$oid" : "53b5ae6b15e9d54415a157a2" } }
{ "name" : "Esther Tucker", "address" : { "street" : "1153 Fabsu Place", "city" : "Liuzaik", "state" : "RI", "zip" : "28625" }, "_id" : { "$oid" : "53b5ae6b15e9d54415a157a3" } }
{ "name" : "Lena Clayton", "address" : { "street" : "1981 Gire Key", "city" : "Tussupov", "state" : "DC", "zip" : "81225" }, "_id" : { "$oid" : "53b5ae6b15e9d54415a157a4" } }
{ "name" : "Landon Jefferson", "address" : { "street" : "124 Junma Street", "city" : "Zunduvil", "state" : "AK", "zip" : "56819" }, "_id" : { "$oid" : "53b5ae6b15e9d54415a157a5" } }
{ "name" : "Duane Todd", "address" : { "street" : "111 Westef Drive", "city" : "Abnagoh", "state" : "MS", "zip" : "62365" }, "_id" : { "$oid" : "53b5ae6b15e9d54415a157a6" } }
{ "name" : "Georgia Warren", "address" : { "street" : "1206 Uzlus Parkway", "city" : "Lulgawi", "state" : "RI", "zip" : "94922" }, "_id" : { "$oid" : "53b5ae6b15e9d54415a157a7" } }
{ "name" : "Lena Tran", "address" : { "street" : "1804 Cacgeh Park", "city" : "Cegirko", "state" : "DE", "zip" : "23985" }, "_id" : { "$oid" : "53b5ae6b15e9d54415a157a8" } }
{ "name" : "Nelle Fletcher", "address" : { "street" : "425 Dubipi Junction", "city" : "Woutji", "state" : "VT", "zip" : "75170" }, "_id" : { "$oid" : "53b5ae6b15e9d54415a157a9" } }
{ "name" : "Patrick Burton", "address" : { "street" : "109 Keino Drive", "city" : "Dokkuztat", "state" : "WI", "zip" : "00785" }, "_id" : { "$oid" : "53b5ae6b15e9d54415a157aa" } }
{ "name" : "Dale Rodriguez", "address" : { "street" : "1114 Cuwve Court", "city" : "Jiparew", "state" : "MI", "zip" : "61665" }, "_id" : { "$oid" : "53b5ae6b15e9d54415a157ab" } }
{ "name" : "Martha Ramos", "address" : { "street" : "799 Dutip River", "city" : "Wilwihib", "state" : "MI", "zip" : "48836" }, "_id" : { "$oid" : "53b5ae6b15e9d54415a157ac" } }
{ "name" : "Lucile Maldonado", "address" : { "street" : "1243 Naroc Boulevard", "city" : "Udjulni", "state" : "OK", "zip" : "87780" }, "_id" : { "$oid" : "53b5ae6b15e9d54415a157ad" } }
{ "name" : "Jared Ingram", "address" : { "street" : "1396 Ojamoz Square", "city" : "Lipewaf", "state" : "TX", "zip" : "18167" }, "_id" : { "$oid" : "53b5ae6b15e9d54415a157ae" } }
{ "name" : "Victoria Fields", "address" : { "street" : "825 Gode Parkway", "city" : "Deoctam", "state" : "VT", "zip" : "99076" }, "_id" : { "$oid" : "53b5ae6b15e9d54415a157af" } }
{ "name" : "Laura Welch", "address" : { "street" : "1472 Duror View", "city" : "Cozalnub", "state" : "NV", "zip" : "89924" }, "_id" : { "$oid" : "53b5ae6b15e9d54415a157b0" } }
{ "name" : "Marc Bryant", "address" : { "street" : "624 Lotif Pass", "city" : "Vahoduiwo", "state" : "GA", "zip" : "70830" }, "_id" : { "$oid" : "53b5ae6b15e9d54415a157b1" } }
{ "name" : "Richard Rios", "address" : { "street" : "312 Lohevo Parkway", "city" : "Wagvaibu", "state" : "PA", "zip" : "88499" }, "_id" : { "$oid" : "53b5ae6b15e9d54415a157b2" } }
{ "name" : "Viola Steele", "address" : { "street" : "1861 Guwpe Lane", "city" : "Burforuri", "state" : "CA", "zip" : "01128" }, "_id" : { "$oid" : "53b5ae6b15e9d54415a157b3" } }
{ "name" : "Luke Rhodes", "address" : { "street" : "765 Tufbuf Place", "city" : "Limtewef", "state" : "MI", "zip" : "67328" }, "_id" : { "$oid" : "53b5ae6b15e9d54415a157b4" } }
{ "name" : "Jim Pearson", "address" : { "street" : "491 Vahkup Trail", "city" : "Idabegov", "state" : "MD", "zip" : "37717" }, "_id" : { "$oid" : "53b5ae6b15e9d54415a157b5" } }
{ "name" : "Adele Gonzalez", "address" : { "street" : "177 Kurij Highway", "city" : "Cupsowa", "state" : "SC", "zip" : "79261" }, "_id" : { "$oid" : "53b5ae6b15e9d54415a157b6" } }
{ "name" : "Stella Nelson", "address" : { "street" : "1914 Agruh Drive", "city" : "Lefdinup", "state" : "OK", "zip" : "15133" }, "_id" : { "$oid" : "53b5ae6b15e9d54415a157b7" } }
{ "name" : "Elmer Davidson", "address" : { "street" : "186 Rimu Way", "city" : "Hofelse", "state" : "SD", "zip" : "87419" }, "_id" : { "$oid" : "53b5ae6b15e9d54415a157b8" } }
{ "name" : "Earl Hardy", "address" : { "street" : "790 Wunze Glen", "city" : "Abhanuti", "state" : "WV", "zip" : "23347" }, "_id" : { "$oid" : "53b5ae6b15e9d54415a157b9" } }
{ "name" : "Fanny Atkins", "address" : { "street" : "1021 Nani Road", "city" : "Fevwefi", "state" : "UT", "zip" : "98652" }, "_id" : { "$oid" : "53b5ae6b15e9d54415a157ba" } }
{ "name" : "Maggie Leonard", "address" : { "street" : "638 Cekit Heights", "city" : "Kodjojav", "state" : "VA", "zip" : "62983" }, "_id" : { "$oid" : "53b5ae6b15e9d54415a157bb" } }
{ "name" : "Julian Gutierrez", "address" : { "street" : "1665 Jojkej Extension", "city" : "Zonidpi", "state" : "HI", "zip" : "37598" }, "_id" : { "$oid" : "53b5ae6b15e9d54415a157bc" } }
{ "name" : "Cecilia McGuire", "address" : { "street" : "1168 Iczag Heights", "city" : "Vifaipa", "state" : "MT", "zip" : "94605" }, "_id" : { "$oid" : "53b5ae6b15e9d54415a157bd" } }
{ "name" : "George Figueroa", "address" : { "street" : "629 Wuvhos Place", "city" : "Vivkahzaz", "state" : "NV", "zip" : "21612" }, "_id" : { "$oid" : "53b5ae6b15e9d54415a157be" } }
{ "name" : "Lou Perkins", "address" : { "street" : "1716 Jenju Path", "city" : "Zimraofu", "state" : "NJ", "zip" : "16320" }, "_id" : { "$oid" : "53b5ae6b15e9d54415a157bf" } }
{ "name" : "Georgia Douglas", "address" : { "street" : "177 Egouj Extension", "city" : "Nanavgal", "state" : "WV", "zip" : "78252" }, "_id" : { "$oid" : "53b5ae6b15e9d54415a157c0" } }
{ "name" : "Adrian Greer", "address" : { "street" : "1944 Effuj Avenue", "city" : "Jubnaufu", "state" : "NJ", "zip" : "46960" }, "_id" : { "$oid" : "53b5ae6b15e9d54415a157c1" } }
{ "name" : "Milton Terry", "address" : { "street" : "5 Hungas Loop", "city" : "Valolzam", "state" : "TX", "zip" : "37057" }, "_id" : { "$oid" : "53b5ae6b15e9d54415a157c2" } }
{ "name" : "Alice Rhodes", "address" : { "street" : "1157 Joul Point", "city" : "Zatwosge", "state" : "MI", "zip" : "06809" }, "_id" : { "$oid" : "53b5ae6b15e9d54415a157c3" } }
{ "name" : "Nancy Dean", "address" : { "street" : "1125 Emikaf Mill", "city" : "Teftiwaj", "state" : "MS", "zip" : "86622" }, "_id" : { "$oid" : "53b5ae6b15e9d54415a157c4" } }
{ "name" : "Devin Sanchez", "address" : { "street" : "639 Hooz Pike", "city" : "Ewwukru", "state" : "PA", "zip" : "27234" }, "_id" : { "$oid" : "53b5ae6b15e9d54415a157c5" } }
{ "name" : "Travis Ruiz", "address" : { "street" : "275 Cogpu Junction", "city" : "Bucabiz", "state" : "UT", "zip" : "60021" }, "_id" : { "$oid" : "53b5ae6b15e9d54415a157c6" } }
{ "name" : "Jay Farmer", "address" : { "street" : "413 Jeru Pass", "city" : "Wakhewra", "state" : "MI", "zip" : "96345" }, "_id" : { "$oid" : "53b5ae6b15e9d54415a157c7" } }
{ "name" : "Gavin Gardner", "address" : { "street" : "1080 Hiktaj River", "city" : "Kimzikfig", "state" : "IL", "zip" : "92361" }, "_id" : { "$oid" : "53b5ae6b15e9d54415a157c8" } }
{ "name" : "John Burgess", "address" : { "street" : "243 Dopma Way", "city" : "Ibpakgu", "state" : "NH", "zip" : "16384" }, "_id" : { "$oid" : "53b5ae6b15e9d54415a157c9" } }
{ "name" : "Rosa Greer", "address" : { "street" : "858 Kihe Place", "city" : "Ihfoof", "state" : "TN", "zip" : "85857" }, "_id" : { "$oid" : "53b5ae6b15e9d54415a157ca" } }
{ "name" : "Willie Rodriquez", "address" : { "street" : "806 Wiuna Loop", "city" : "Cohihiso", "state" : "ID", "zip" : "62411" }, "_id" : { "$oid" : "53b5ae6b15e9d54415a157cb" } }
{ "name" : "Dean Terry", "address" : { "street" : "1591 Tafir Lane", "city" : "Lovulosa", "state" : "LA", "zip" : "49526" }, "_id" : { "$oid" : "53b5ae6b15e9d54415a157cc" } }
{ "name" : "Ollie Dean", "address" : { "street" : "981 Dinri Trail", "city" : "Januhfa", "state" : "ID", "zip" : "31465" }, "_id" : { "$oid" : "53b5ae6b15e9d54415a157cd" } }
{ "name" : "Margaret Webster", "address" : { "street" : "1262 Ozofa Square", "city" : "Giggawu", "state" : "VT", "zip" : "51383" }, "_id" : { "$oid" : "53b5ae6b15e9d54415a157ce" } }
{ "name" : "Walter Chavez", "address" : { "street" : "263 Wiwmo Heights", "city" : "Rodevreh", "state" : "OR", "zip" : "93587" }, "_id" : { "$oid" : "53b5ae6b15e9d54415a157cf" } }
{ "name" : "Chad Lewis", "address" : { "street" : "789 Declak Way", "city" : "Bobahfiv", "state" : "WI", "zip" : "07709" }, "_id" : { "$oid" : "53b5ae6b15e9d54415a157d0" } }
{ "name" : "Michael Morgan", "address" : { "street" : "1396 Rohub Junction", "city" : "Foudru", "state" : "AK", "zip" : "69658" }, "_id" : { "$oid" : "53b5ae6b15e9d54415a157d1" } }
{ "name" : "Etta Bryant", "address" : { "street" : "574 Fupto Road", "city" : "Vehoime", "state" : "AR", "zip" : "90441" }, "_id" : { "$oid" : "53b5ae6b15e9d54415a157d2" } }
{ "name" : "Nelle Rowe", "address" : { "street" : "747 Wifep Plaza", "city" : "Capaoni", "state" : "MT", "zip" : "70907" }, "_id" : { "$oid" : "53b5ae6b15e9d54415a157d3" } }
{ "name" : "David Perry", "address" : { "street" : "1580 Woveb Grove", "city" : "Navkenhob", "state" : "CT", "zip" : "41827" }, "_id" : { "$oid" : "53b5ae6b15e9d54415a157d4" } }
{ "name" : "Gordon Sandoval", "address" : { "street" : "1679 Haka Grove", "city" : "Bedeporu", "state" : "PA", "zip" : "14815" }, "_id" : { "$oid" : "53b5ae6b15e9d54415a157d5" } }
{ "name" : "Flora Fowler", "address" : { "street" : "38 Zapos Park", "city" : "Kulvufed", "state" : "OR", "zip" : "48560" }, "_id" : { "$oid" : "53b5ae6b15e9d54415a157d6" } }
{ "name" : "Leona Wilson", "address" : { "street" : "349 Cudjat Heights", "city" : "Uvrutha", "state" : "SD", "zip" : "63996" }, "_id" : { "$oid" : "53b5ae6b15e9d54415a157d7" } }
{ "name" : "Lelia Curtis", "address" : { "street" : "1680 Etrih Drive", "city" : "Pesahwur", "state" : "NV", "zip" : "74021" }, "_id" : { "$oid" : "53b5ae6b15e9d54415a157d8" } }
{ "name" : "Robert Matthews", "address" : { "street" : "472 Ontap Terrace", "city" : "Hobgekbu", "state" : "NE", "zip" : "40981" }, "_id" : { "$oid" : "53b5ae6b15e9d54415a157d9" } }
{ "name" : "Sadie Ball", "address" : { "street" : "1147 Azeze Place", "city" : "Vutuse", "state" : "MN", "zip" : "86501" }, "_id" : { "$oid" : "53b5ae6b15e9d54415a157da" } }
{ "name" : "Eric Holt", "address" : { "street" : "802 Tuesa Street", "city" : "Gicomih", "state" : "HI", "zip" : "41801" }, "_id" : { "$oid" : "53b5ae6b15e9d54415a157db" } }
{ "name" : "Georgie Lynch", "address" : { "street" : "1980 Poohu Road", "city" : "Tirolgi", "state" : "AZ", "zip" : "61718" }, "_id" : { "$oid" : "53b5ae6b15e9d54415a157dc" } }
{ "name" : "Logan Weber", "address" : { "street" : "317 Vunad Grove", "city" : "Daahdu", "state" : "MA", "zip" : "33858" }, "_id" : { "$oid" : "53b5ae6b15e9d54415a157dd" } }
{ "name" : "Curtis Gomez", "address" : { "street" : "1761 Upeso Turnpike", "city" : "Hekirloz", "state" : "TX", "zip" : "60421" }, "_id" : { "$oid" : "53b5ae6b15e9d54415a157de" } }
{ "name" : "Gary Diaz", "address" : { "street" : "544 Bona Pass", "city" : "Zadzuba", "state" : "TN", "zip" : "52733" }, "_id" : { "$oid" : "53b5ae6b15e9d54415a157df" } }
{ "name" : "Garrett White", "address" : { "street" : "780 Anse Path", "city" : "Wesetiim", "state" : "AK", "zip" : "51644" }, "_id" : { "$oid" : "53b5ae6b15e9d54415a157e0" } }
{ "name" : "Linnie Perkins", "address" : { "street" : "102 Behag Square", "city" : "Uwepuzic", "state" : "ND", "zip" : "23507" }, "_id" : { "$oid" : "53b5ae6b15e9d54415a157e1" } }
{ "name" : "Roger McBride", "address" : { "street" : "143 Etse Place", "city" : "Ohiudewe", "state" : "IL", "zip" : "38622" }, "_id" : { "$oid" : "53b5ae6b15e9d54415a157e2" } }
{ "name" : "Lewis Graves", "address" : { "street" : "737 Ejiziw Place", "city" : "Sahepewo", "state" : "NY", "zip" : "33284" }, "_id" : { "$oid" : "53b5ae6b15e9d54415a157e3" } }
{ "name" : "Agnes Warner", "address" : { "street" : "1140 Nagtak Circle", "city" : "Fawtapga", "state" : "LA", "zip" : "43067" }, "_id" : { "$oid" : "53b5ae6b15e9d54415a157e4" } }
{ "name" : "Lois Gutierrez", "address" : { "street" : "914 Dukas Terrace", "city" : "Rihukvew", "state" : "SC", "zip" : "53200" }, "_id" : { "$oid" : "53b5ae6b15e9d54415a157e5" } }
{ "name" : "Marian Jenkins", "address" : { "street" : "155 Isbe Plaza", "city" : "Fobear", "state" : "UT", "zip" : "22769" }, "_id" : { "$oid" : "53b5ae6b15e9d54415a157e6" } }
{ "name" : "Nina Black", "address" : { "street" : "116 Mejsu Plaza", "city" : "Gupjalod", "state" : "SC", "zip" : "00945" }, "_id" : { "$oid" : "53b5ae6b15e9d54415a157e7" } }
{ "name" : "Rena Jackson", "address" : { "street" : "21 Ulfe Highway", "city" : "Wunovin", "state" : "MA", "zip" : "80633" }, "_id" : { "$oid" : "53b5ae6b15e9d54415a157e8" } }
{ "name" : "Melvin Bass", "address" : { "street" : "46 Batso Glen", "city" : "Bihbipgod", "state" : "MO", "zip" : "18697" }, "_id" : { "$oid" : "53b5ae6b15e9d54415a157e9" } }
{ "name" : "Scott Curtis", "address" : { "street" : "157 Puthe Center", "city" : "Ihomiklip", "state" : "VT", "zip" : "93305" }, "_id" : { "$oid" : "53b5ae6b15e9d54415a157ea" } }
{ "name" : "Jeff Alvarez", "address" : { "street" : "472 Caita Lane", "city" : "Guszoul", "state" : "IN", "zip" : "24132" }, "_id" : { "$oid" : "53b5ae6b15e9d54415a157eb" } }
{ "name" : "Jerome Higgins", "address" : { "street" : "512 Jitpe Path", "city" : "Waghorpur", "state" : "KY", "zip" : "48382" }, "_id" : { "$oid" : "53b5ae6b15e9d54415a157ec" } }
{ "name" : "Todd Hansen", "address" : { "street" : "1663 Kinfaf Turnpike", "city" : "Sivtezef", "state" : "MT", "zip" : "09124" }, "_id" : { "$oid" : "53b5ae6b15e9d54415a157ed" } }
{ "name" : "Leroy Campbell", "address" : { "street" : "1659 Cibme Plaza", "city" : "Neczucet", "state" : "DC", "zip" : "56282" }, "_id" : { "$oid" : "53b5ae6b15e9d54415a157ee" } }
{ "name" : "Madge Reeves", "address" : { "street" : "876 Lodas Pike", "city" : "Gazofraf", "state" : "NE", "zip" : "45923" }, "_id" : { "$oid" : "53b5ae6b15e9d54415a157ef" } }
{ "name" : "Bernard Ramsey", "address" : { "street" : "1433 Bahkig Way", "city" : "Hucava", "state" : "SC", "zip" : "78040" }, "_id" : { "$oid" : "53b5ae6b15e9d54415a157f0" } }
